OBJECT_NAME,OBJECT_ID,EPOCH,MEAN_MOTION,ECCENTRICITY,INCLINATION,RA_OF_ASC_NODE,ARG_OF_PERICENTER,MEAN_ANOMALY,EPHEMERIS_TYPE,CLASSIFICATION_TYPE,NORAD_CAT_ID,ELEMENT_SET_NO,REV_AT_EPOCH,BSTAR,MEAN_MOTION_DOT,MEAN_MOTION_DDOT
STARLINK-37963,2026-147F,2026-07-06T18:00:02.998944,15.80900336,.0001238,97.2837,223.6559,90.2897,290.8663,0,U,69709,999,238,-.87525E-3,-.165296E-2,0
STARLINK-37969,2026-147G,2026-07-06T18:00:02.998944,15.80901314,.0001418,97.2836,223.6583,95.0423,290.3916,0,U,69710,999,253,-.90759E-3,-.171295E-2,0
STARLINK-37956,2026-147H,2026-07-06T18:00:02.998944,15.80839633,.0001224,97.2838,223.6607,80.0178,309.6923,0,U,69711,999,238,-.83985E-4,-.16216E-3,0
STARLINK-38043,2026-147J,2026-07-06T18:00:02.998944,15.80818141,.0001331,97.2840,223.6620,91.4974,302.4927,0,U,69712,999,238,.29705E-4,.5552E-4,0
STARLINK-38020,2026-147K,2026-07-06T18:00:02.998944,15.80843188,.0001759,97.2839,223.6638,59.4085,338.8477,0,U,69713,999,238,-.14063E-3,-.2703E-3,0
STARLINK-38059,2026-147L,2026-07-06T18:00:02.998944,15.80929260,.0001589,97.2839,223.6659,94.6642,307.8731,0,U,69714,999,238,-.1183E-2,-.222229E-2,0
STARLINK-38061,2026-147M,2026-07-06T18:00:02.998944,15.80840657,.000145,97.2839,223.6679,110.0508,296.7246,0,U,69715,999,247,.51022E-4,.9653E-4,0
STARLINK-38060,2026-147N,2026-07-06T18:00:02.998944,15.80825696,.000092,97.2837,223.6694,111.1301,299.9709,0,U,69716,999,247,-.13422E-3,-.25787E-3,0
STARLINK-38040,2026-147P,2026-07-06T18:00:02.998944,15.80832540,.0000896,97.2839,223.6716,80.4331,334.9400,0,U,69717,999,247,-.1556E-3,-.29866E-3,0
STARLINK-37989,2026-147Q,2026-07-06T18:00:02.998944,15.80894950,.0001389,97.2834,223.6727,111.2857,308.3438,0,U,69718,999,247,-.88148E-3,-.166413E-2,0
STARLINK-38039,2026-147R,2026-07-06T18:00:02.998944,15.80755771,.0000618,97.2834,223.6748,133.5113,290.4106,0,U,69719,999,247,.2538E-3,.48609E-3,0
STARLINK-38003,2026-147S,2026-07-06T18:00:02.998944,15.80824392,.0001017,97.2834,223.6762,78.9033,349.3111,0,U,69720,999,247,-.14891E-3,-.28581E-3,0
STARLINK-38014,2026-147T,2026-07-06T18:00:02.998944,15.80910168,.0001317,97.2834,223.6782,87.6776,344.7736,0,U,69721,999,247,-.89239E-3,-.168546E-2,0
STARLINK-37915,2026-147U,2026-07-06T18:00:02.998944,15.81055289,.0000859,97.2836,223.6803,111.6934,324.9584,0,U,69722,999,247,-.1968E-2,-.36573E-2,0
STARLINK-38007,2026-147V,2026-07-06T18:00:02.998944,15.80902388,.0001202,97.2835,223.6734,81.6818,341.4193,0,U,69723,999,247,-.89374E-3,-.168734E-2,0
STARLINK-38008,2026-147W,2026-07-06T18:00:02.998944,15.81800793,.0001328,97.2836,223.6838,72.1500,12.6052,0,U,69724,999,247,-.73741E-2,-.1302101E-1,0
STARLINK-38021,2026-147X,2026-07-06T18:00:02.998944,15.82087017,.0001224,97.2834,223.6853,73.1270,15.6817,0,U,69725,999,247,-.89471E-2,-.1592402E-1,0
STARLINK-38015,2026-147Y,2026-07-06T18:00:02.998944,15.82389010,.0001649,97.2837,223.6875,93.2547,359.4904,0,U,69726,999,247,-.96708E-2,-.1725095E-1,0
STARLINK-38010,2026-147Z,2026-07-06T18:00:02.998944,15.82701356,.0001471,97.2837,223.6889,82.6847,13.9518,0,U,69727,999,247,-.10449E-1,-.1909204E-1,0
SXM-11,2026-148A,2026-07-06T15:32:18.466080,1.49072280,.3010145,4.9967,143.6636,179.8215,180.1424,0,U,69728,999,23,0,-.69E-6,0
HAIYANG-2E,2026-149A,2026-07-04T06:42:18.852768,13.80975314,.00075972,99.3513,192.3452,219.2566,140.8036,0,U,69737,999,32,-.6119502E+0,-.616275E-2,0
