STARLINK-37963          
1 69709U 26147F   26187.75003471 -.00165296  00000+0 -87525-3 0  9992
2 69709  97.2837 223.6559 0001238  90.2897 290.8663 15.80900336  2382
STARLINK-37969          
1 69710U 26147G   26187.75003471 -.00171295  00000+0 -90759-3 0  9993
2 69710  97.2836 223.6583 0001418  95.0423 290.3916 15.80901314  2538
STARLINK-37956          
1 69711U 26147H   26187.75003471 -.00016216  00000+0 -83985-4 0  9999
2 69711  97.2838 223.6607 0001224  80.0178 309.6923 15.80839633  2383
STARLINK-38043          
1 69712U 26147J   26187.75003471  .00005552  00000+0  29705-4 0  9999
2 69712  97.2840 223.6620 0001331  91.4974 302.4927 15.80818141  2387
STARLINK-38020          
1 69713U 26147K   26187.75003471 -.00027030  00000+0 -14063-3 0  9997
2 69713  97.2839 223.6638 0001759  59.4085 338.8477 15.80843188  2388
STARLINK-38059          
1 69714U 26147L   26187.75003471 -.00222229  00000+0 -11830-2 0  9993
2 69714  97.2839 223.6659 0001589  94.6642 307.8731 15.80929260  2388
STARLINK-38061          
1 69715U 26147M   26187.75003471  .00009653  00000+0  51022-4 0  9995
2 69715  97.2839 223.6679 0001450 110.0508 296.7246 15.80840657  2471
STARLINK-38060          
1 69716U 26147N   26187.75003471 -.00025787  00000+0 -13422-3 0  9995
2 69716  97.2837 223.6694 0000920 111.1301 299.9709 15.80825696  2476
STARLINK-38040          
1 69717U 26147P   26187.75003471 -.00029866  00000+0 -15560-3 0  9993
2 69717  97.2839 223.6716 0000896  80.4331 334.9400 15.80832540  2471
STARLINK-37989          
1 69718U 26147Q   26187.75003471 -.00166413  00000+0 -88148-3 0  9996
2 69718  97.2834 223.6727 0001389 111.2857 308.3438 15.80894950  2472
STARLINK-38039          
1 69719U 26147R   26187.75003471  .00048609  00000+0  25380-3 0  9990
2 69719  97.2834 223.6748 0000618 133.5113 290.4106 15.80755771  2472
STARLINK-38003          
1 69720U 26147S   26187.75003471 -.00028581  00000+0 -14891-3 0  9996
2 69720  97.2834 223.6762 0001017  78.9033 349.3111 15.80824392  2473
STARLINK-38014          
1 69721U 26147T   26187.75003471 -.00168546  00000+0 -89239-3 0  9991
2 69721  97.2834 223.6782 0001317  87.6776 344.7736 15.80910168  2479
STARLINK-37915          
1 69722U 26147U   26187.75003471 -.00365730  00000+0 -19680-2 0  9998
2 69722  97.2836 223.6803 0000859 111.6934 324.9584 15.81055289  2476
STARLINK-38007          
1 69723U 26147V   26187.75003471 -.00168734  00000+0 -89374-3 0  9992
2 69723  97.2835 223.6734 0001202  81.6818 341.4193 15.80902388  2479
STARLINK-38008          
1 69724U 26147W   26187.75003471 -.01302101  00000+0 -73741-2 0  9992
2 69724  97.2836 223.6838 0001328  72.1500  12.6052 15.81800793  2477
STARLINK-38021          
1 69725U 26147X   26187.75003471 -.01592402  00000+0 -89471-2 0  9995
2 69725  97.2834 223.6853 0001224  73.1270  15.6817 15.82087017  2472
STARLINK-38015          
1 69726U 26147Y   26187.75003471 -.01725095  00000+0 -96708-2 0  9993
2 69726  97.2837 223.6875 0001649  93.2547 359.4904 15.82389010  2475
STARLINK-38010          
1 69727U 26147Z   26187.75003471 -.01909204  00000+0 -10449-1 0  9997
2 69727  97.2837 223.6889 0001471  82.6847  13.9518 15.82701356  2473
SXM-11                  
1 69728U 26148A   26187.64743595 -.00000069  00000+0  00000+0 0  9994
2 69728   4.9967 143.6636 3010145 179.8215 180.1424  1.49072280   233
HAIYANG-2E              
1 69737U 26149A   26185.27938487 -.00616275  00000+0 -61195+0 0  9993
2 69737  99.3513 192.3452 0007597 219.2566 140.8036 13.80975314   327
